#dV2023  1  5 22  0  0.00000000    1682       CTS   FIT  GFZ
## 2243 424800.00000000    30.00000000 59949 0.9166666666667
+    1   L64  0  0  0  0  0  0  0  0  0  0  0  0  0  0  0  0
+          0  0  0  0  0  0  0  0  0  0  0  0  0  0  0  0  0
+          0  0  0  0  0  0  0  0  0  0  0  0  0  0  0  0  0
+          0  0  0  0  0  0  0  0  0  0  0  0  0  0  0  0  0
+          0  0  0  0  0  0  0  0  0  0  0  0  0  0  0  0  0
++         0  0  0  0  0  0  0  0  0  0  0  0  0  0  0  0  0
++         0  0  0  0  0  0  0  0  0  0  0  0  0  0  0  0  0
++         0  0  0  0  0  0  0  0  0  0  0  0  0  0  0  0  0
++         0  0  0  0  0  0  0  0  0  0  0  0  0  0  0  0  0
++         0  0  0  0  0  0  0  0  0  0  0  0  0  0  0  0  0
%c L  cc GPS ccc cccc cccc cccc cccc ccccc ccccc ccccc ccccc
%c cc cc ccc ccc cccc cccc cccc cccc ccccc ccccc ccccc ccccc
%f  0.0000000  0.000000000  0.00000000000  0.000000000000000
%f  0.0000000  0.000000000  0.00000000000  0.000000000000000
%i    0    0    0    0      0      0      0      0         0
%i    0    0    0    0      0      0      0      0         0
/* CCCCCCCCCCCCCCCCCCCCCCCCCCCCCCCCCCCCCCCCCCCCCCCCCCCCCCCCCCCCCCCCCCCCCCCCCCCCC
/* C                             GFZ RSO-ORBIT                                 C
/* C DOI: https://doi.org/10.5880/GFZ_ORBIT/RSO/L64_G_v02                      C
/* C                                                                           C
/* C DORIS        RMS: not applicable                                          C
/* C GNSS-E Code  RMS: not applicable                                          C
/* C GNSS-E Phase RMS: not applicable                                          C
/* C GNSS-G Code  RMS:  50.389 [cm]   Obs.acc.:     14317 Obs.eli.:      1002  C
/* C GNSS-G Phase RMS:   4.317 [mm]   Obs.acc.:     14317 Obs.eli.:      1002  C
/* C SLR          RMS:   2.727 [cm]   Obs.acc.:        43 Obs.eli.:         0  C
/* C                                                                           C
/* CCCCCCCCCCCCCCCCCCCCCCCCCCCCCCCCCCCCCCCCCCCCCCCCCCCCCCCCCCCCCCCCCCCCCCCCCCCCC
*  2023  1  6  0 33  0.00000000
PL64   1334.248361   5766.769046   3498.035248  20910.136131
VL64  11422.683708  37157.261027 -65479.549029 999999.999999
*  2023  1  6  0 33 30.00000000
PL64   1368.016423   5874.978939   3299.697915  20910.595398
VL64  11085.698706  34976.270730 -66733.169410 999999.999999
*  2023  1  6  0 34  0.00000000
PL64   1400.740705   5976.589543   3097.709939  20911.054650
VL64  10726.866389  32758.153815 -67913.085184 999999.999999
*  2023  1  6  0 34 30.00000000
PL64   1432.356006   6071.493264   2892.294434  20911.513997
VL64  10346.419725  30505.440855 -69017.973564 999999.999999
*  2023  1  6  0 35  0.00000000
PL64   1462.797876   6159.590163   2683.678374  20911.973366
VL64   9944.626926  28220.704073 -70046.587969 999999.999999
*  2023  1  6  0 35 30.00000000
PL64   1492.002727   6240.788077   2472.092346  20912.432584
VL64   9521.795182  25906.556746 -70997.765281 999999.999999
*  2023  1  6  0 36  0.00000000
PL64   1519.907952   6315.002741   2257.770296  20912.891928
VL64   9078.269451  23565.647832 -71870.431715 999999.999999
*  2023  1  6  0 36 30.00000000
PL64   1546.452029   6382.157880   2040.949253  20913.351369
VL64   8614.430024  21200.655746 -72663.604579 999999.999999
*  2023  1  6  0 37  0.00000000
PL64   1571.574631   6442.185294   1821.869057  20913.810674
VL64   8130.691092  18814.283667 -73376.391964 999999.999999
*  2023  1  6  0 37 30.00000000
PL64   1595.216722   6495.024926   1600.772092  20914.270068
VL64   7627.500087  16409.256422 -74007.991704 999999.999999
*  2023  1  6  0 38  0.00000000
PL64   1617.320660   6540.624922   1377.903010  20914.729336
VL64   7105.338222  13988.319039 -74557.691382 999999.999999
*  2023  1  6  0 38 30.00000000
PL64   1637.830295   6578.941692   1153.508467  20915.188371
VL64   6564.720770  11554.234163 -75024.870852 999999.999999
*  2023  1  6  0 39  0.00000000
PL64   1656.691076   6609.939955    927.836835  20915.647785
VL64   6006.196193   9109.777405 -75409.003772 999999.999999
*  2023  1  6  0 39 30.00000000
PL64   1673.850145   6633.592770    701.137926  20916.107189
VL64   5430.345211   6657.733756 -75709.657810 999999.999999
*  2023  1  6  0 40  0.00000000
PL64   1689.256432   6649.881562    473.662708  20916.566296
VL64   4837.779450   4200.894521 -75926.495145 999999.999999
*  2023  1  6  0 40 30.00000000
PL64   1702.860747   6658.796136    245.663018  20917.025353
VL64   4229.140658   1742.054169 -76059.272496 999999.999999
*  2023  1  6  0 41  0.00000000
PL64   1714.615873   6660.334680     17.391284  20917.484422
VL64   3605.100716   -715.992826 -76107.841656 999999.999999
*  2023  1  6  0 41 30.00000000
PL64   1724.476651   6654.503763   -210.899768  20917.943626
VL64   2966.361017  -3170.455801 -76072.150041 999999.999999
*  2023  1  6  0 42  0.00000000
PL64   1732.400069   6641.318313   -438.957395  20918.402717
VL64   2313.651443  -5618.551621 -75952.240449 999999.999999
*  2023  1  6  0 42 30.00000000
PL64   1738.345346   6620.801593   -666.529127  20918.861820
VL64   1647.729484  -8057.507785 -75748.250674 999999.999999
*  2023  1  6  0 43  0.00000000
PL64   1742.274016   6592.985165   -893.363049  20919.321012
VL64    969.379260 -10484.565460 -75460.413514 999999.999999
*  2023  1  6  0 43 30.00000000
PL64   1744.150003   6557.908842  -1119.208085  20919.780273
VL64    279.410438 -12896.982830 -75089.056810 999999.999999
*  2023  1  6  0 44  0.00000000
PL64   1743.939694   6515.620631  -1343.814289  20920.239495
VL64   -421.342744 -15292.038599 -74634.603091 999999.999999
*  2023  1  6  0 44 30.00000000
PL64   1741.612019   6466.176670  -1566.933120  20920.698702
VL64  -1132.022516 -17667.035404 -74097.568940 999999.999999
*  2023  1  6  0 45  0.00000000
PL64   1737.138512   6409.641148  -1788.317729  20921.157949
VL64  -1851.748684 -20019.303072 -73478.564310 999999.999999
*  2023  1  6  0 45 30.00000000
PL64   1730.493381   6346.086221  -2007.723235  20921.617373
VL64  -2579.619729 -22346.201886 -72778.291778 999999.999999
*  2023  1  6  0 46  0.00000000
PL64   1721.653569   6275.591913  -2224.907003  20922.076681
VL64  -3314.714153 -24645.125802 -71997.545657 999999.999999
*  2023  1  6  0 46 30.00000000
PL64   1710.598812   6198.246012  -2439.628918  20922.535972
VL64  -4056.091981 -26913.505554 -71137.211012 999999.999999
*  2023  1  6  0 47  0.00000000
PL64   1697.311691   6114.143955  -2651.651653  20922.995254
VL64  -4802.796069 -29148.811889 -70198.262494 999999.999999
*  2023  1  6  0 47 30.00000000
PL64   1681.777682   6023.388702  -2860.740939  20923.454672
VL64  -5553.853219 -31348.558762 -69181.762897 999999.999999
*  2023  1  6  0 48  0.00000000
PL64   1663.985206   5926.090603  -3066.665826  20923.914270
VL64  -6308.275346 -33510.306258 -68088.861636 999999.999999
*  2023  1  6  0 48 30.00000000
PL64   1643.925666   5822.367256  -3269.198939  20924.374106
VL64  -7065.060821 -35631.663440 -66920.793211 999999.999999
*  2023  1  6  0 49  0.00000000
PL64   1621.593491   5712.343354  -3468.116733  20924.833791
VL64  -7823.195789 -37710.291242 -65678.875514 999999.999999
*  2023  1  6  0 49 30.00000000
PL64   1596.986167   5596.150525  -3663.199739  20925.293112
VL64  -8581.655453 -39743.905243 -64364.507925 999999.999999
*  2023  1  6  0 50  0.00000000
PL64   1570.104268   5473.927165  -3854.232807  20925.752352
VL64  -9339.405570 -41730.278240 -62979.169298 999999.999999
*  2023  1  6  0 50 30.00000000
PL64   1540.951485   5345.818266  -4041.005338  20926.211462
VL64 -10095.404032 -43667.242623 -61524.415896 999999.999999
*  2023  1  6  0 51  0.00000000
PL64   1509.534644   5211.975226  -4223.311516  20926.670639
VL64 -10848.602280 -45552.692626 -60001.879262 999999.999999
*  2023  1  6  0 51 30.00000000
PL64   1475.863725   5072.555668  -4400.950532  20927.129911
VL64 -11597.946661 -47384.586496 -58413.264048 999999.999999
*  2023  1  6  0 52  0.00000000
PL64   1439.951875   4927.723241  -4573.726795  20927.589232
VL64 -12342.379815 -49160.948453 -56760.345757 999999.999999
*  2023  1  6  0 52 30.00000000
PL64   1401.815417   4777.647420  -4741.450146  20928.048531
VL64 -13080.841946 -50879.870461 -55044.968508 999999.999999
*  2023  1  6  0 53  0.00000000
PL64   1361.473855   4622.503299  -4903.936056  20928.507783
VL64 -13812.272097 -52539.513910 -53269.042815 999999.999999
*  2023  1  6  0 53 30.00000000
PL64   1318.949877   4462.471385  -5061.005827  20928.967118
VL64 -14535.609700 -54138.110938 -51434.543429 999999.999999
*  2023  1  6  0 54  0.00000000
PL64   1274.269348   4297.737378  -5212.486778  20929.426415
VL64 -15249.796394 -55673.965843 -49543.507745 999999.999999
*  2023  1  6  0 54 30.00000000
PL64   1227.461304   4128.491956  -5358.212433  20929.885723
VL64 -15953.777471 -57145.457419 -47598.034116 999999.999999
*  2023  1  6  0 55  0.00000000
PL64   1178.557939   3954.930544  -5498.022700  20930.345005
VL64 -16646.502582 -58551.041485 -45600.279420 999999.999999
*  2023  1  6  0 55 30.00000000
PL64   1127.594590   3777.253082  -5631.764039  20930.804471
VL64 -17326.927175 -59889.253125 -43552.455888 999999.999999
*  2023  1  6  0 56  0.00000000
PL64   1074.609713   3595.663785  -5759.289628  20931.263894
VL64 -17994.014818 -61158.707742 -41456.826996 999999.999999
*  2023  1  6  0 56 30.00000000
PL64   1019.644865   3410.370900  -5880.459506  20931.723225
VL64 -18646.738455 -62358.100882 -39315.704549 999999.999999
*  2023  1  6  0 57  0.00000000
PL64    962.744664   3221.586467  -5995.140719  20932.182636
VL64 -19284.081018 -63486.209191 -37131.447200 999999.999999
*  2023  1  6  0 57 30.00000000
PL64    903.956766   3029.526073  -6103.207456  20932.642054
VL64 -19905.037050 -64541.892098 -34906.457927 999999.999999
*  2023  1  6  0 58  0.00000000
PL64    843.331821   2834.408600  -6204.541178  20933.101497
VL64 -20508.614562 -65524.092444 -32643.180751 999999.999999
EOF
